     3.00           N                   E                   RINEX VERSION / TYPE
BRD_USR             ESA                 20190115 221652  UTCPGM / RUN BY / DATE
 GAL   3.9750E+01  1.3281E-01 -1.4954E-03  0.0000E+00       IONOSPHERIC CORR
GAUT  1.8626451492E-09-8.881784197E-16 172800 2036 GSTB   0 TIME SYSTEM CORR
GPGA -4.4528860599E-09-2.442490654E-14 259200 2036 GSTB   0 TIME SYSTEM CORR
                                                            END OF HEADER
E14 2019 01 15 20 30 00 6.459414958954E-03-5.613287612505E-12 0.000000000000E+00
     2.700000000000E+01-1.553125000000E+02 4.794842581582E-09 1.785657542318E+00
    -8.048489689827E-06 1.662805859232E-01 7.003545761108E-07 5.289385732651E+03
     2.466000000000E+05 2.816319465637E-06-1.588451363455E+00-2.028420567513E-06
     8.826432479198E-01 2.991250000000E+02 1.458671258804E+00-6.286690437319E-09
    -1.350056235261E-10 5.210000000000E+02 2.036000000000E+03 0.000000000000E+00
     3.120000000000E+00 4.550000000000E+02 3.282912075520E-08 3.702007234097E-08
     2.477950000000E+05 0.000000000000E+00 0.000000000000E+00 0.000000000000E+00
E18 2019 01 15 20 30 00 5.603723169770E-03-2.847855284926E-11 0.000000000000E+00
     2.700000000000E+01-1.325000000000E+01 3.137630694913E-09-1.386504611722E+00
     3.576278686523E-07 1.663241670467E-01 7.443130016327E-06 5.289362604141E+03
     2.466000000000E+05 4.442408680916E-06-1.571248200246E+00 4.298985004425E-06
     8.818559887959E-01 1.870937500000E+02 1.443261200136E+00-4.422327064816E-09
    -8.986088592373E-10 5.210000000000E+02 2.036000000000E+03 0.000000000000E+00
     3.120000000000E+00 4.550000000000E+02 1.443549990654E-08 1.606531441212E-08
     2.477950000000E+05 0.000000000000E+00 0.000000000000E+00 0.000000000000E+00
E14 2019 01 15 20 30 00 6.459410768002E-03-5.584865903074E-12 0.000000000000E+00
     2.700000000000E+01-1.553125000000E+02 4.794842581582E-09 1.785657542318E+00
    -8.048489689827E-06 1.662805859232E-01 7.003545761108E-07 5.289385732651E+03
     2.466000000000E+05 2.816319465637E-06-1.588451363455E+00-2.028420567513E-06
     8.826432479198E-01 2.991250000000E+02 1.458671258804E+00-6.286690437319E-09
    -1.350056235261E-10 2.580000000000E+02 2.036000000000E+03 0.000000000000E+00
     3.120000000000E+00 5.600000000000E+01 3.282912075520E-08 0.000000000000E+00
     2.478000000000E+05 0.000000000000E+00 0.000000000000E+00 0.000000000000E+00
E15 2019 01 15 19 40 00 9.228725684807E-04-1.037392394210E-12 0.000000000000E+00
     2.200000000000E+01-5.271875000000E+01 2.599393989479E-09-2.713692379174E+00
    -2.516433596611E-06 3.959337482229E-04 9.506940841675E-06 5.440599985123E+03
     2.436000000000E+05 2.793967723846E-08-9.911653169168E-01-7.078051567078E-08
     9.852022024262E-01 1.512187500000E+02-1.567355063635E+00-5.374152426448E-09
     8.428922527028E-11 2.580000000000E+02 2.036000000000E+03 0.000000000000E+00
     3.120000000000E+00 5.600000000000E+01 1.396983861923E-09 0.000000000000E+00
     2.478000000000E+05 0.000000000000E+00 0.000000000000E+00 0.000000000000E+00
E18 2019 01 15 20 30 00 5.603721248917E-03-2.847855284926E-11 0.000000000000E+00
     2.700000000000E+01-1.325000000000E+01 3.137630694913E-09-1.386504611722E+00
     3.576278686523E-07 1.663241670467E-01 7.443130016327E-06 5.289362604141E+03
     2.466000000000E+05 4.442408680916E-06-1.571248200246E+00 4.298985004425E-06
     8.818559887959E-01 1.870937500000E+02 1.443261200136E+00-4.422327064816E-09
    -8.986088592373E-10 2.580000000000E+02 2.036000000000E+03 0.000000000000E+00
     3.120000000000E+00 5.600000000000E+01 1.443549990654E-08 0.000000000000E+00
     2.478000000000E+05 0.000000000000E+00 0.000000000000E+00 0.000000000000E+00
E02 2019 01 15 20 40 00 4.347588401288E-05 1.506350599811E-12 0.000000000000E+00
     2.800000000000E+01 1.102812500000E+02 2.930836366813E-09-8.403790545323E-01
     5.157664418221E-06 2.491287887096E-04 4.585832357407E-06 5.440619373322E+03
     2.472000000000E+05-5.401670932770E-08-3.071242383150E+00 8.568167686462E-08
     9.901093724067E-01 2.562500000000E+02-1.164687906841E-01-5.645592304437E-09
     1.253623647028E-10 5.210000000000E+02 2.036000000000E+03 0.000000000000E+00
     3.120000000000E+00 0.000000000000E+00-6.286427378654E-09-7.683411240578E-09
     2.478850000000E+05 0.000000000000E+00 0.000000000000E+00 0.000000000000E+00
E07 2019 01 15 20 40 00-1.132254838012E-04-7.048583938740E-12 0.000000000000E+00
     2.800000000000E+01-4.071875000000E+01 3.438714664840E-09-3.866595077948E-01
    -1.834705471992E-06 1.350507372990E-04 7.789582014084E-06 5.440614816666E+03
     2.472000000000E+05-1.676380634308E-08 1.119410340665E+00 1.676380634308E-08
     9.524544593799E-01 1.681562500000E+02-4.964207693462E-02-5.700237437769E-09
    -1.789360248322E-10 5.210000000000E+02 2.036000000000E+03 0.000000000000E+00
     3.120000000000E+00 0.000000000000E+00 2.328306436539E-10 0.000000000000E+00
     2.478850000000E+05 0.000000000000E+00 0.000000000000E+00 0.000000000000E+00
E08 2019 01 15 20 40 00 6.422747799661E-03-7.489120434911E-12 0.000000000000E+00
     2.800000000000E+01-4.171875000000E+01 3.399784471813E-09-9.337726663511E-02
    -1.937150955200E-06 2.120329299942E-04 7.722526788712E-06 5.440615728378E+03
     2.472000000000E+05-2.793967723846E-08 1.110812355645E+00-9.313225746155E-09
     9.583971281273E-01 1.752812500000E+02 4.436631128523E-01-5.689879863478E-09
    -1.771502361613E-10 5.210000000000E+02 2.036000000000E+03 0.000000000000E+00
     3.120000000000E+00 0.000000000000E+00-8.847564458847E-09-1.001171767712E-08
     2.478850000000E+05 0.000000000000E+00 0.000000000000E+00 0.000000000000E+00
E11 2019 01 15 20 40 00 5.719849781599E-03 6.679101716145E-13 0.000000000000E+00
     2.800000000000E+01-8.909375000000E+01 2.513676133272E-09-1.127459092111E+00
    -4.021450877190E-06 2.883747220039E-04 1.075677573681E-05 5.440609510422E+03
     2.472000000000E+05-5.587935447693E-09-9.858933902570E-01-2.235174179077E-08
     9.820033491812E-01 1.214687500000E+02-3.545661016728E-01-5.334865075687E-09
     1.175048945505E-10 5.210000000000E+02 2.036000000000E+03 0.000000000000E+00
     3.120000000000E+00 0.000000000000E+00-1.839362084866E-08-2.002343535423E-08
     2.478850000000E+05 0.000000000000E+00 0.000000000000E+00 0.000000000000E+00
E14 2019 01 15 20 40 00 6.459411699325E-03-5.599076757790E-12 0.000000000000E+00
     2.800000000000E+01-1.709062500000E+02 4.910561687462E-09 1.866613524106E+00
    -8.333474397659E-06 1.662818251643E-01 6.854534149170E-07 5.289383197784E+03
     2.472000000000E+05 2.989545464516E-06-1.588455082193E+00-1.830980181694E-06
     8.826429875204E-01 3.008125000000E+02 1.458664712246E+00-6.244545824684E-09
    -9.321816862518E-11 5.210000000000E+02 2.036000000000E+03 0.000000000000E+00
     3.120000000000E+00 4.550000000000E+02 3.282912075520E-08 3.702007234097E-08
     2.478850000000E+05 0.000000000000E+00 0.000000000000E+00 0.000000000000E+00
E18 2019 01 15 20 40 00 5.603705998510E-03-2.847855284926E-11 0.000000000000E+00
     2.800000000000E+01-6.156250000000E+00 3.632294156774E-09-1.305552870935E+00
     8.568167686462E-07 1.663241612259E-01 7.616356015205E-06 5.289363048553E+03
     2.472000000000E+05 3.054738044739E-06-1.571249464207E+00 5.148351192474E-06
     8.818517082976E-01 1.907500000000E+02 1.443258786322E+00-5.434512083528E-09
    -1.061829943765E-09 5.210000000000E+02 2.036000000000E+03 0.000000000000E+00
     3.120000000000E+00 4.550000000000E+02 1.443549990654E-08 1.606531441212E-08
     2.478850000000E+05 0.000000000000E+00 0.000000000000E+00 0.000000000000E+00
E21 2019 01 15 20 40 00-5.146075272933E-04-1.818989403546E-12 0.000000000000E+00
     2.800000000000E+01 1.055625000000E+02 2.916907215179E-09 2.334756129404E+00
     4.904344677925E-06 4.416110459715E-05 4.323199391365E-06 5.440627140045E+03
     2.472000000000E+05 3.911554813385E-08-3.073819029541E+00-1.862645149231E-08
     9.896654148055E-01 2.608437500000E+02 6.529392319170E-01-5.637020518817E-09
     7.464596644698E-11 5.210000000000E+02 2.036000000000E+03 0.000000000000E+00
     3.120000000000E+00 0.000000000000E+00-2.328306436539E-09-2.793967723846E-09
     2.478850000000E+05 0.000000000000E+00 0.000000000000E+00 0.000000000000E+00
E24 2019 01 15 20 40 00 6.284196686465E-03-1.971045548999E-11 0.000000000000E+00
     2.800000000000E+01 1.213437500000E+02 2.975123925853E-09 7.443208544655E-02
     5.690380930901E-06 4.788585938513E-04 4.479661583900E-06 5.440616369247E+03
     2.472000000000E+05-3.725290298462E-08-3.067753864811E+00-7.823109626770E-08
     9.876686837708E-01 2.538437500000E+02 5.366540198969E-01-5.732738791581E-09
     8.286059433349E-11 5.210000000000E+02 2.036000000000E+03 0.000000000000E+00
     3.120000000000E+00 0.000000000000E+00 4.260800778866E-08 4.773028194904E-08
     2.478850000000E+05 0.000000000000E+00 0.000000000000E+00 0.000000000000E+00
E25 2019 01 15 20 40 00 1.922802650370E-03-1.141131633631E-11 0.000000000000E+00
     2.800000000000E+01 1.144062500000E+02 2.942622572042E-09 1.229766695348E+00
     5.289912223816E-06 1.740134321153E-04 4.971399903297E-06 5.440622985840E+03
     2.472000000000E+05-8.754432201385E-08-3.073827647591E+00-1.117587089539E-08
     9.896704077449E-01 2.466250000000E+02-1.382059545379E+00-5.643092200298E-09
     9.536111503035E-11 5.210000000000E+02 2.036000000000E+03 0.000000000000E+00
     3.120000000000E+00 0.000000000000E+00-1.396983861923E-09-1.629814505577E-09
     2.478850000000E+05 0.000000000000E+00 0.000000000000E+00 0.000000000000E+00
